STARLINK-3867           
1 52587U 22051BD  22150.86986065  .00062970  00000+0  45154-3 0  9990
2 52587  53.2176 209.2015 0002223  11.3643 348.7427 15.73104187  3149
STARLINK-3917           
1 52588U 22051BE  22150.86976499  .00049775  00000+0  35682-3 0  9994
2 52588  53.2171 209.1995 0002527  28.8767 331.2392 15.73207616  3215
FALCON 9 DEB            
1 52589U 22051BF  22150.86689084  .00185580  24411-4  48376-3 0  9992
2 52589  53.2306 207.7226 0012392 353.0118   7.0737 15.94493908  3160
FALCON 9 DEB            
1 52595U 22051BG  22150.85951288  .00225839  31193-4  54734-3 0  9998
2 52595  53.2277 207.6707 0010393 354.0830   6.0075 15.95824520  3161
FALCON 9 DEB            
1 52596U 22051BH  22150.40782431  .00279594  42646-4  62197-3 0  9996
2 52596  53.2238 209.8149 0012549 333.7033  26.3359 15.97282389  3092
FALCON 9 DEB            
1 52597U 22051BJ  22150.53131050  .00237917  33836-4  53513-3 0  9992
2 52597  53.2211 209.1566 0010101 326.8757  33.1640 15.97175111  3114
STARLINK-4019           
1 52598U 22052A   22150.91667824 -.00829336  00000+0 -93178-2 0  9995
2 52598  53.2174   0.1476 0001210  76.8173  54.1392 15.64584794  1308
STARLINK-4024           
1 52599U 22052B   22150.91667824 -.00064816  00000+0 -46098-3 0  9990
2 52599  53.2145   0.0558 0001122  97.2948 105.2087 15.73199542  1308
STARLINK-4026           
1 52600U 22052C   22150.91667824  .00034609  00000+0  24980-3 0  9994
2 52600  53.2150   0.0537 0001295 104.3934  99.7120 15.73218024  1302
STARLINK-4027           
1 52601U 22052D   22150.91667824  .00031018  00000+0  22443-3 0  9998
2 52601  53.2146   0.0550 0001320  86.9689 115.9131 15.73218082  1301
STARLINK-4012           
1 52602U 22052E   22150.91667824  .00033134  00000+0  23937-3 0  9999
2 52602  53.2149   0.0548 0001308 101.8967 101.5831 15.73219422  2919
STARLINK-4016           
1 52603U 22052F   22150.91667824 -.00048409  00000+0 -34180-3 0  9995
2 52603  53.2146   0.0473 0001080 100.0869 106.3671 15.73247140  1308
STARLINK-4013           
1 52604U 22052G   22150.88055064  .00005859  00000+0  46100-4 0  9995
2 52604  53.2159   0.2288 0000930  77.5124 282.6000 15.73217196  2543
STARLINK-4000           
1 52605U 22052H   22150.91667824 -.00829353  00000+0 -93177-2 0  9992
2 52605  53.2174   0.1500 0001207  78.2241  53.9357 15.64585646  1308
STARLINK-3928           
1 52606U 22052J   22150.88044985  .00006752  00000+0  52444-4 0  9998
2 52606  53.2155   0.2269 0001398  30.0656 330.0444 15.73218517  2541
STARLINK-3947           
1 52607U 22052K   22150.91667824 -.00829375  00000+0 -93157-2 0  9996
2 52607  53.2175   0.1574 0001183  82.2547  51.7955 15.64591929  1300
STARLINK-3979           
1 52608U 22052L   22150.91667824 -.00000938  00000+0 -22671-5 0  9999
2 52608  53.2148   0.0452 0001215 104.3427 103.3608 15.73225352  1307
STARLINK-3997           
1 52609U 22052M   22150.91667824 -.00001046  00000+0 -30373-5 0  9999
2 52609  53.2145   0.0392 0001047 110.4072  99.6769 15.73228358  1309
STARLINK-3998           
1 52610U 22052N   22150.91667824 -.00829234  00000+0 -93159-2 0  9996
2 52610  53.2174   0.1534 0001215  79.6997  53.6634 15.64586425  1304
STARLINK-3980           
1 52611U 22052P   22150.91667824 -.00829173  00000+0 -93145-2 0  9994
2 52611  53.2175   0.1594 0001228  71.3623  64.4076 15.64588046  1302
STARLINK-4002           
1 52612U 22052Q   22150.91667824 -.00020142  00000+0 -13933-3 0  9992
2 52612  53.2147   0.0410 0001059 101.3121 108.1705 15.73219182  1304
STARLINK-3921           
1 52613U 22052R   22150.91667824 -.00002068  00000+0 -10307-4 0  9993
2 52613  53.2143   0.0346 0000984 101.4699 110.4063 15.73233861  1309
STARLINK-3982           
1 52614U 22052S   22150.91667824  .00019558  00000+0  14331-3 0  9994
2 52614  53.2145   0.0373 0001044  98.2055 113.0530 15.73221789  1303
STARLINK-4011           
1 52615U 22052T   22150.91667824 -.00829204  00000+0 -93198-2 0  9991
2 52615  53.2175   0.1592 0001200  86.7511  51.7707 15.64575128  1307
STARLINK-4015           
1 52616U 22052U   22150.91667824  .00042149  00000+0  30357-3 0  9994
2 52616  53.2145   0.0348 0001313  98.6781 113.9539 15.73173060  1302
STARLINK-3996           
1 52617U 22052V   22150.91667824 -.00046548  00000+0 -32838-3 0  9990
2 52617  53.2142   0.0276 0001149  98.9633 116.4601 15.73249447  1307
STARLINK-3983           
1 52618U 22052W   22150.91667824 -.00021483  00000+0 -14879-3 0  9997
2 52618  53.2145   0.0332 0001051 102.6765 110.3815 15.73239701  1307
STARLINK-3741           
1 52619U 22052X   22150.91667824  .00016397  00000+0  12083-3 0  9999
2 52619  53.2143   0.0260 0000969  95.6735 120.3332 15.73236366  1300
STARLINK-3975           
1 52620U 22052Y   22150.91667824 -.00829087  00000+0 -93163-2 0  9998
2 52620  53.2175   0.1637 0001212  84.1298  55.0792 15.64580497  1306
STARLINK-3984           
1 52621U 22052Z   22150.91667824  .00045451  00000+0  32626-3 0  9990
2 52621  53.2142   0.0223 0001084 100.2564 117.5401 15.73217900  1301
STARLINK-4008           
1 52622U 22052AA  22150.91667824 -.00829201  00000+0 -93151-2 0  9995
2 52622  53.2176   0.2189 0001200  89.0316  50.8623 15.64587633  1309
STARLINK-3986           
1 52623U 22052AB  22150.91667824 -.00034819  00000+0 -24414-3 0  9996
2 52623  53.2140   0.0196 0001108 103.6778 115.2951 15.73253035  1305
STARLINK-4009           
1 52624U 22052AC  22150.91667824  .00044855  00000+0  32218-3 0  9997
2 52624  53.2143   0.0251 0001049 109.5722 107.0388 15.73209076  1308
STARLINK-3988           
1 52625U 22052AD  22150.91667824 -.00029664  00000+0 -20731-3 0  9998
2 52625  53.2140   0.0180 0001229 102.5160 117.0906 15.73241879  1300
STARLINK-3990           
1 52626U 22052AE  22150.91667824  .00032915  00000+0  23796-3 0  9994
2 52626  53.2144   0.0240 0001182  98.4948 118.7132 15.73205444  1304
STARLINK-3992           
1 52627U 22052AF  22150.91667824 -.00050507  00000+0 -35680-3 0  9999
2 52627  53.2143   0.0144 0001097 105.6059 115.7850 15.73253012  1304
STARLINK-4001           
1 52628U 22052AG  22150.91667824 -.00829105  00000+0 -93205-2 0  9994
2 52628  53.2176   0.2178 0001195  88.0774  55.0846 15.64570000  1307
STARLINK-4022           
1 52629U 22052AH  22150.91667824  .00007424  00000+0  57258-4 0  9995
2 52629  53.2140   0.0133 0001210  96.6883 125.3411 15.73203189  1302
STARLINK-3989           
1 52630U 22052AJ  22150.91667824 -.00026729  00000+0 -18636-3 0  9994
2 52630  53.2142   0.0174 0000962 103.2796 116.9265 15.73234450  1300
STARLINK-3794           
1 52631U 22052AK  22150.91667824  .00005426  00000+0  43021-4 0  9991
2 52631  53.2140   0.0105 0001236  94.5651 128.6200 15.73218790  1308
STARLINK-3995           
1 52632U 22052AL  22150.91667824  .00042937  00000+0  30853-3 0  9998
2 52632  53.2142   0.0168 0000902 109.0112 111.7497 15.73219404  1307
STARLINK-3994           
1 52633U 22052AM  22150.91667824 -.00002058  00000+0 -10241-4 0  9991
2 52633  53.2138   0.0070 0000899 102.8412 122.1523 15.73232547  1303
STARLINK-3974           
1 52634U 22052AN  22150.91667824  .00047126  00000+0  33821-3 0  9993
2 52634  53.2141   0.0125 0000879 102.7270 119.8173 15.73206969  1301
STARLINK-3978           
1 52635U 22052AP  22150.91667824  .00002388  00000+0  21402-4 0  9998
2 52635  53.2139   0.0045 0001102 100.7610 125.4163 15.73223690  1308
STARLINK-3967           
1 52636U 22052AQ  22150.91667824  .00001584  00000+0  15682-4 0  9999
2 52636  53.2140   0.0103 0001170  98.5126 125.2968 15.73225001  1306
STARLINK-3961           
1 52637U 22052AR  22150.91667824 -.00046283  00000+0 -32645-3 0  9994
2 52637  53.2138   0.0028 0001038 103.7977 122.9790 15.73251750  1303
STARLINK-3941           
1 52638U 22052AS  22150.91667824 -.00046774  00000+0 -32976-3 0  9997
2 52638  53.2140   0.0083 0001161 102.1344 122.3315 15.73266619  1303
STARLINK-3968           
1 52639U 22052AT  22150.91667824  .00008857  00000+0  67421-4 0  9990
2 52639  53.2136 359.9990 0001095 102.0583 126.4957 15.73212889  1309
STARLINK-3977           
1 52640U 22052AU  22150.91667824  .00001930  00000+0  18138-4 0  9998
2 52640  53.2139   0.0060 0001243  96.5585 129.0193 15.73233392  1303
STARLINK-3991           
1 52641U 22052AV  22150.91667824  .00004162  00000+0  34051-4 0  9991
2 52641  53.2136 359.9975 0001316 106.5331 122.6203 15.73205504  1309
STARLINK-3971           
1 52642U 22052AW  22150.91667824 -.00017359  00000+0 -11928-3 0  9993
2 52642  53.2139   0.0021 0001007 106.4759 120.8325 15.73247907  1307
STARLINK-3963           
1 52643U 22052AX  22150.91667824 -.00056680  00000+0 -40119-3 0  9998
2 52643  53.2135 359.9939 0001161 102.8683 128.0547 15.73255993  1305
STARLINK-3985           
1 52644U 22052AY  22150.91667824 -.00001736  00000+0 -79635-5 0  9998
2 52644  53.2138   0.0005 0001336 104.3967 123.7036 15.73174267  1302
STARLINK-3973           
1 52645U 22052AZ  22150.91667824 -.00046206  00000+0 -32586-3 0  9992
2 52645  53.2133 359.9924 0001105 105.7566 125.7296 15.73253866  1301
STARLINK-3832           
1 52646U 22052BA  22150.91667824  .00020680  00000+0  15124-3 0  9998
2 52646  53.2137 359.9970 0001048 111.0326 118.6937 15.73224743  1302
STARLINK-3846           
1 52647U 22052BB  22150.91667824 -.00069546  00000+0 -49401-3 0  9990
2 52647  53.2134 359.9897 0000987 108.1616 124.5754 15.73256723  1304
STARLINK-3854           
1 52648U 22052BC  22150.91667824  .00007763  00000+0  59663-4 0  9994
2 52648  53.2139 359.9957 0001254 106.5403 123.8347 15.73204424  1302
STARLINK-3868           
1 52649U 22052BD  22150.91667824  .00004241  00000+0  34577-4 0  9990
2 52649  53.2133 359.9913 0001077  86.5321 145.6228 15.73228427  1307
STARLINK-3891           
1 52650U 22052BE  22150.91667824  .00003612  00000+0  30132-4 0  9996
2 52650  53.2136 359.9898 0001024  96.1058 137.2118 15.73206512  1306
